STARLINK-3386           
1 51126U 22005Y   22031.58335648 -.00821065  00000+0 -42768-2 0  9996
2 51126  53.2178 212.5731 0001900 258.4086 295.0335 15.82271122  2434
STARLINK-3370           
1 51127U 22005Z   22031.58335648 -.00820570  00000+0 -42724-2 0  9999
2 51127  53.2178 212.5722 0001900 264.1300 289.7911 15.82278925  2391
STARLINK-3400           
1 51128U 22005AA  22031.58335648 -.00821305  00000+0 -42593-2 0  9991
2 51128  53.2178 212.5658 0003039 255.9071 301.0553 15.82352609  2435
STARLINK-3396           
1 51129U 22005AB  22031.58335648 -.00664302  14874-3 -17830-2 0  9998
2 51129  53.2181 212.0356 0021964 221.7757 239.8862 15.93220195  2447
STARLINK-3395           
1 51130U 22005AC  22031.58335648 -.00823015  00000+0 -42811-2 0  9997
2 51130  53.2178 212.5704 0002343 222.3467 332.4589 15.82300446  2433
STARLINK-3388           
1 51131U 22005AD  22031.58335648 -.00823059  00000+0 -42721-2 0  9996
2 51131  53.2178 212.5677 0003281 244.8321 311.2031 15.82335684  2432
STARLINK-3393           
1 51132U 22005AE  22031.58335648 -.00819997  00000+0 -42587-2 0  9993
2 51132  53.2178 212.5685 0002908 265.5984 290.0665 15.82320115  2432
STARLINK-3356           
1 51133U 22005AF  22031.58335648 -.00823791  00000+0 -42696-2 0  9992
2 51133  53.2178 212.5649 0003557 236.7488 320.6285 15.82365335  2478
STARLINK-3183           
1 51134U 22005AG  22031.58335648 -.00739294  00000+0 -28980-2 0  9997
2 51134  53.2177 212.1988 0001419  38.2114 335.0717 15.87932519  2442
STARLINK-3363           
1 51135U 22005AH  22031.58335648 -.00822398  00000+0 -42605-2 0  9996
2 51135  53.2178 212.5640 0003306 245.7744 312.0501 15.82374333  2438
STARLINK-3253           
1 51136U 22005AJ  22031.58335648 -.00027504  11407-4 -45479-4 0  9995
2 51136  53.2213 212.1808 0051543 210.4437 176.2704 15.97429028  2449
STARLINK-3180           
1 51137U 22005AK  22031.58335648 -.00818194  00000+0 -42325-2 0  9996
2 51137  53.2178 212.5603 0001753 273.1203 286.4805 15.82411786  2444
STARLINK-3177           
1 51138U 22005AL  22031.58335648 -.00818972  00000+0 -42435-2 0  9993
2 51138  53.2177 212.5631 0001434 278.4444 279.8395 15.82381821  2385
STARLINK-3172           
1 51139U 22005AM  22031.58335648 -.00817641  00000+0 -42238-2 0  9997
2 51139  53.2178 212.5586 0002360 271.5579 288.8828 15.82433584  2440
STARLINK-3175           
1 51140U 22005AN  22031.58335648 -.00822073  00000+0 -42543-2 0  9993
2 51140  53.2178 212.5614 0002454 222.2814 336.8436 15.82405665  2441
STARLINK-3179           
1 51141U 22005AP  22031.58335648 -.00818126  00000+0 -42212-2 0  9991
2 51141  53.2178 212.5569 0002474 263.7009 297.5206 15.82459151  2457
STARLINK-3369           
1 51142U 22005AQ  22031.58335648 -.00821954  00000+0 -42544-2 0  9993
2 51142  53.2178 212.5623 0003045 243.5818 315.1066 15.82395206  2437
STARLINK-3184           
1 51143U 22005AR  22031.58335648 -.00816925  00000+0 -42106-2 0  9990
2 51143  53.2177 212.5541 0001492 280.2822 282.2727 15.82487978  2440
STARLINK-3185           
1 51144U 22005AS  22031.58335648 -.00817005  00000+0 -42197-2 0  9991
2 51144  53.2178 212.5578 0001552 290.5532 270.3148 15.82444050  2451
STARLINK-3365           
1 51145U 22005AT  22031.58335648 -.00816906  00000+0 -42073-2 0  9994
2 51145  53.2177 212.5533 0001788 280.9851 281.9468 15.82501262  2430
STARLINK-3354           
1 51146U 22005AU  22031.58335648 -.00818098  00000+0 -42288-2 0  9997
2 51146  53.2178 212.5596 0001760 269.0696 290.8623 15.82427514  2435
STARLINK-3352           
1 51147U 22005AV  22031.58335648 -.00823058  00000+0 -42425-2 0  9993
2 51147  53.2178 212.5550 0003493 233.6151 328.5184 15.82480184  2437
STARLINK-3359           
1 51148U 22005AW  22031.58335648 -.00825112  00000+0 -42448-2 0  9992
2 51148  53.2178 212.5524 0004471 233.0459 330.3607 15.82513565  2432
STARLINK-3360           
1 51149U 22005AX  22031.58335648 -.00817180  00000+0 -42041-2 0  9998
2 51149  53.2178 212.5514 0002392 265.7150 298.1379 15.82519053  2437
STARLINK-3357           
1 51150U 22005AY  22031.58335648 -.00818888  00000+0 -42223-2 0  9998
2 51150  53.2177 212.5561 0003075 262.1293 299.5534 15.82468473  2435
STARLINK-3361           
1 51151U 22005AZ  22031.58335648 -.00819659  00000+0 -42115-2 0  9996
2 51151  53.2177 212.5497 0003305 250.6348 314.0699 15.82541694  2435
STARLINK-3364           
1 51152U 22005BA  22031.58335648 -.00819594  00000+0 -42136-2 0  9998
2 51152  53.2177 212.5506 0003222 252.5550 311.7377 15.82530313  2434
FALCON 9 DEB            
1 51153U 22005BB  22031.49289674  .01902268  11773-4  63633-3 0  9996
2 51153  53.2051 211.5892 0046574 210.5018 149.3313 16.21917045  2185
FALCON 9 DEB            
1 51154U 22005BC  22031.48477905  .02382994  11846-4  66108-3 0  9992
2 51154  53.2125 211.5419 0039695 219.6692 140.1446 16.24767918  2188
FALCON 9 DEB            
1 51155U 22005BD  22031.47002259  .03143048  11989-4  55818-3 0  9998
2 51155  53.2108 211.4436 0029793 214.9652 144.9437 16.30379887  2183
FALCON 9 DEB            
1 51156U 22005BE  22031.53920883  .02581966  11875-4  62275-3 0  9991
2 51156  53.2150 211.1681 0039686 216.0081 143.8288 16.26236503  2196
L-SAR 01A               
1 51284U 22007A   22031.54097846  .00000031  00000+0  89977-5 0  9990
2 51284  97.8122  40.8483 0005767 231.2036 128.8660 14.89911518   839
CZ-4C R/B               
1 51285U 22007B   22031.57918628  .00004074  00000+0  17922-3 0  9994
2 51285  97.8452  41.1712 0124939  12.8163 347.6177 15.15663623   848
CZ-4C DEB               
1 51286U 22007C   22030.01818880  .00233604  00000+0  43185-1 0  9993
2 51286  97.8038  39.1328 0142443 199.7376 159.8326 14.57710056   599
ELSA-D CLIENT           
1 51288U 21022AQ  22031.57149404  .00002742  00000+0  18669-3 0  9990
2 51288  97.5411 294.2976 0016980 244.5154 115.4317 15.07007620   944
GASPACS                 
1 51439U 98067TB  22031.04513400  .00054174  00000+0  93001-3 0  9993
2 51439  51.6427 295.7318 0008425  88.9894  18.7367 15.50588696   734
1998-067TC              
1 51440U 98067TC  22031.04485873  .00074313  00000+0  12616-2 0  9996
2 51440  51.6433 295.7265 0008665  87.0192  20.7228 15.50764019   791
1998-067TD              
1 51441U 98067TD  22031.04519911  .00022322  00000+0  39138-3 0  9990
2 51441  51.6422 295.7304 0008960  91.9655  15.9356 15.50440380   789
1998-067TE              
1 51442U 98067TE  22031.04468396  .00022186  00000+0  38701-3 0  9994
2 51442  51.6436 295.7247 0008905  99.6508   7.9567 15.50590140   743
1998-067TF              
1 51443U 98067TF  22031.04423363  .00045996  00000+0  78316-3 0  9990
2 51443  51.6443 295.7221 0010203  84.3981  23.4667 15.50874410   709
